{
  "norad_id": 49454,
  "name": "STARLINK-3160",
  "history": [
    {
      "epoch": "2026-03-28T10:07:40.145088Z",
      "apogee_km": 540.8573437212708,
      "perigee_km": 538.7064243818422,
      "latitude_deg": 2.5340722281258713e-05,
      "longitude_deg": 157.27027719347288,
      "height_km": 540.9208063270374,
      "semi_major_axis_km": 6917.918884051556,
      "eccentricity": 0.00015546,
      "inclination_deg": 53.216,
      "raan_deg": 135.0302,
      "arg_perigee_deg": 103.0912,
      "mean_anomaly_deg": 257.0254,
      "mean_motion_rev_day": 15.08827406
    }
  ]
}